[{"OBJECT_NAME":"STARLINK-5787","OBJECT_ID":"2023-042U","EPOCH":"2026-03-09T00:30:06.566112","MEAN_MOTION":15.02528532,"ECCENTRICITY":0.00014679,"INCLINATION":43.0055,"RA_OF_ASC_NODE":59.4097,"ARG_OF_PERICENTER":270.8583,"MEAN_ANOMALY":89.2091,"EPHEMERIS_TYPE":0,"CLASSIFICATION_TYPE":"U","NORAD_CAT_ID":56004,"ELEMENT_SET_NO":999,"REV_AT_EPOCH":16281,"BSTAR":-4.8640846e-5,"MEAN_MOTION_DOT":-8.61e-6,"MEAN_MOTION_DDOT":0},{"OBJECT_NAME":"FENGYUN 1C DEB","OBJECT_ID":"1999-025DH","EPOCH":"2026-03-09T22:27:36.392832","MEAN_MOTION":14.64646374,"ECCENTRICITY":0.01796987,"INCLINATION":98.0552,"RA_OF_ASC_NODE":80.5984,"ARG_OF_PERICENTER":220.1282,"MEAN_ANOMALY":138.6535,"EPHEMERIS_TYPE":0,"CLASSIFICATION_TYPE":"U","NORAD_CAT_ID":29815,"ELEMENT_SET_NO":999,"REV_AT_EPOCH":1127,"BSTAR":0.000529441,"MEAN_MOTION_DOT":3.51e-5,"MEAN_MOTION_DDOT":0}]
